NUSAT-49 (KLARA DAN VO*)
1 60500U 24149AJ  26068.79810190  .00012912  00000+0  43568-3 0  9991
2 60500  97.3807 150.7380 0001132 286.7761  73.3356 15.30828857 86935
STARLINK-34655          
1 65027U 25161N   26068.87734281  .00032869  00000+0  11161-2 0  9996
2 65027  53.1602 293.6767 0003460 168.0698 192.0386 15.30221140 35354
